{"epoch":1784762836,"count":18316,"objects":[{"id":"48767","name":"ONEWEB-0211","type":"PAYLOAD","l1":"1 48767U 21045A   26201.94367726  .00008569  00000-0  22466-1 0  9998","l2":"2 48767  87.8982 252.3489 0003448 120.1064 240.0409 13.16269499248881"},{"id":"48768","name":"ONEWEB-0223","type":"PAYLOAD","l1":"1 48768U 21045B   26203.17964295 -.00000070  00000-0 -22121-3 0  9991","l2":"2 48768  87.8984 252.2203 0002417 104.0175 256.1225 13.15548250249009"},{"id":"48769","name":"ONEWEB-0230","type":"PAYLOAD","l1":"1 48769U 21045C   26203.15112224  .00000008  00000-0 -13956-4 0  9994","l2":"2 48769  87.8976 252.2357 0001856  95.6237 264.5105 13.15548408249264"},{"id":"48770","name":"ONEWEB-0237","type":"PAYLOAD","l1":"1 48770U 21045D   26203.14002715  .00000114  00000-0  26783-3 0  9996","l2":"2 48770  87.8977 252.2402 0002342  92.2307 267.9092 13.15548787248980"},{"id":"48771","name":"ONEWEB-0235","type":"PAYLOAD","l1":"1 48771U 21045E   26203.57099904 -.00000172  00000-0 -49197-3 0  9990","l2":"2 48771  87.8980 252.1432 0002363 105.6408 254.4983 13.15547425249036"},{"id":"48772","name":"ONEWEB-0242","type":"PAYLOAD","l1":"1 48772U 21045F   26203.56468186  .00000005  00000-0 -19677-4 0  9997","l2":"2 48772  87.8986 252.1421 0002006 102.7454 257.3901 13.15548838249079"},{"id":"48773","name":"ONEWEB-0241","type":"PAYLOAD","l1":"1 48773U 21045G   26203.55203770 -.00000121  00000-0 -35532-3 0  9990","l2":"2 48773  87.8975 252.1592 0002384 101.9487 258.1911 13.15550998248982"},{"id":"48774","name":"ONEWEB-0243","type":"PAYLOAD","l1":"1 48774U 21045H   26203.12732886  .00000270  00000-0  68426-3 0  9990","l2":"2 48774  87.8978 252.2558 0001944 111.8260 248.3077 13.15550780248959"},{"id":"48775","name":"ONEWEB-0222","type":"PAYLOAD","l1":"1 48775U 21045J   26203.56706056  .00000018  00000-0  12436-4 0  9990","l2":"2 48775  87.8982 252.1388 0002259  99.5638 260.5748 13.15547225249059"},{"id":"48776","name":"ONEWEB-0244","type":"PAYLOAD","l1":"1 48776U 21045K   26203.21292110  .00000086  00000-0  19332-3 0  9990","l2":"2 48776  87.8993 252.2059 0002049  99.9767 260.1594 13.15547994249577"},{"id":"48777","name":"ONEWEB-0247","type":"PAYLOAD","l1":"1 48777U 21045L   26203.59002287  .00000164  00000-0  40085-3 0  9992","l2":"2 48777  87.8977 252.1582 0002354 117.4548 242.6822 13.15546427249065"},{"id":"48778","name":"ONEWEB-0245","type":"PAYLOAD","l1":"1 48778U 21045M   26203.20497914  .00000083  00000-0  18699-3 0  9992","l2":"2 48778  87.8988 252.2178 0002199  98.1839 261.9541 13.15549022248981"},{"id":"48779","name":"ONEWEB-0229","type":"PAYLOAD","l1":"1 48779U 21045N   26203.58053057  .00000119  00000-0  28077-3 0  9991","l2":"2 48779  87.8982 252.1402 0002013 100.2575 259.8783 13.15548141249067"},{"id":"48780","name":"ONEWEB-0228","type":"PAYLOAD","l1":"1 48780U 21045P   26203.53787352 -.00000128  00000-0 -37283-3 0  9991","l2":"2 48780  87.8992 252.1435 0002152  98.3157 261.8218 13.15548719248979"},{"id":"48781","name":"ONEWEB-0232","type":"PAYLOAD","l1":"1 48781U 21045Q   26203.58845806  .00000176  00000-0  43428-3 0  9995","l2":"2 48781  87.8991 252.1337 0002137  96.7693 263.3680 13.15548243249300"},{"id":"48782","name":"ONEWEB-0231","type":"PAYLOAD","l1":"1 48782U 21045R   26203.56627049  .00000054  00000-0  10811-3 0  9996","l2":"2 48782  87.8978 252.1492 0002268 101.9941 258.1444 13.15547729248990"},{"id":"48783","name":"ONEWEB-0234","type":"PAYLOAD","l1":"1 48783U 21045S   26203.37599155  .00000057  00000-0  11772-3 0  9992","l2":"2 48783  87.8994 252.1697 0002568  80.0694 280.0726 13.15547325249104"},{"id":"48784","name":"ONEWEB-0238","type":"PAYLOAD","l1":"1 48784U 21045T   26203.14807220 -.00000032  00000-0 -12016-3 0  9990","l2":"2 48784  87.8993 252.2109 0002262  85.9217 274.2172 13.15548920248975"},{"id":"48785","name":"ONEWEB-0240","type":"PAYLOAD","l1":"1 48785U 21045U   26203.16933018 -.00000144  00000-0 -41570-3 0  9999","l2":"2 48785  87.8986 252.2163 0002372  98.9888 261.1511 13.15549045249004"},{"id":"48786","name":"ONEWEB-0246","type":"PAYLOAD","l1":"1 48786U 21045V   26203.16379732 -.00000101  00000-0 -30203-3 0  9991","l2":"2 48786  87.8988 252.2212 0002013  99.6220 260.5138 13.15547950248877"},{"id":"48787","name":"ONEWEB-0210","type":"PAYLOAD","l1":"1 48787U 21045W   26203.36661820  .00000045  00000-0  84618-4 0  9991","l2":"2 48787  87.8988 252.1781 0002052 121.7180 238.4150 13.15548094248949"},{"id":"48788","name":"ONEWEB-0214","type":"PAYLOAD","l1":"1 48788U 21045X   26203.37532787  .00000065  00000-0  13783-3 0  9998","l2":"2 48788  87.8985 252.1727 0001813 105.5709 254.5621 13.15547067248916"},{"id":"48789","name":"ONEWEB-0221","type":"PAYLOAD","l1":"1 48789U 21045Y   26203.15429185  .00000016  00000-0  74212-5 0  9994","l2":"2 48789  87.8984 252.2253 0002165 100.4583 259.6791 13.15549308248976"},{"id":"48790","name":"ONEWEB-0213","type":"PAYLOAD","l1":"1 48790U 21045Z   26203.14319746  .00000031  00000-0  48459-4 0  9996","l2":"2 48790  87.9007 252.2331 0001763  95.7285 264.4047 13.15549252249034"},{"id":"48791","name":"ONEWEB-0212","type":"PAYLOAD","l1":"1 48791U 21045AA  26203.42444844  .00000087  00000-0  19784-3 0  9995","l2":"2 48791  87.8983 252.1690 0002008  95.8922 264.2437 13.15547564249064"},{"id":"48792","name":"ONEWEB-0227","type":"PAYLOAD","l1":"1 48792U 21045AB  26203.57575922  .00001194  00000-0  31360-2 0  9997","l2":"2 48792  87.8968 252.1390 0002191 100.1741 259.9637 13.15557833249037"},{"id":"48793","name":"ONEWEB-0226","type":"PAYLOAD","l1":"1 48793U 21045AC  26203.56943744  .00000049  00000-0  97051-4 0  9997","l2":"2 48793  87.8982 252.1450 0002060 104.6236 255.5123 13.15547930249000"},{"id":"48794","name":"ONEWEB-0224","type":"PAYLOAD","l1":"1 48794U 21045AD  26203.15270622 -.00000059  00000-0 -19145-3 0  9991","l2":"2 48794  87.8977 252.2598 0002917  91.1580 268.9885 13.15549115248876"},{"id":"48795","name":"ONEWEB-0233","type":"PAYLOAD","l1":"1 48795U 21045AE  26203.15730522 -.00000370  00000-0 -10177-2 0  9993","l2":"2 48795  87.8975 252.2661 0002320 100.8878 259.2514 13.15548743248892"},{"id":"48796","name":"ONEWEB-0190","type":"PAYLOAD","l1":"1 48796U 21045AF  26203.14477971  .00000105  00000-0  24450-3 0  9993","l2":"2 48796  87.8985 252.2328 0002399 111.8397 248.2989 13.15549209248968"}]}