OBJECT_NAME,OBJECT_ID,EPOCH,MEAN_MOTION,ECCENTRICITY,INCLINATION,RA_OF_ASC_NODE,ARG_OF_PERICENTER,MEAN_ANOMALY,EPHEMERIS_TYPE,CLASSIFICATION_TYPE,NORAD_CAT_ID,ELEMENT_SET_NO,REV_AT_EPOCH,BSTAR,MEAN_MOTION_DOT,MEAN_MOTION_DDOT
ONEWEB-0211,2021-045A,2026-07-20T22:38:53.715264,13.16269499,.00034478,87.8982,252.3489,120.1064,240.0409,0,U,48767,999,24888,.22466268E-1,.8569E-4,0
ONEWEB-0223,2021-045B,2026-07-22T04:18:41.150880,13.15548250,.00024169,87.8984,252.2203,104.0175,256.1225,0,U,48768,999,24900,-.22120827E-3,-.7E-6,0
ONEWEB-0230,2021-045C,2026-07-22T03:37:36.961536,13.15548408,.00018561,87.8976,252.2357,95.6237,264.5105,0,U,48769,999,24926,-.13955796E-4,.8E-7,0
ONEWEB-0237,2021-045D,2026-07-22T03:21:38.345760,13.15548787,.00023417,87.8977,252.2402,92.2307,267.9092,0,U,48770,999,24898,.26783246E-3,.114E-5,0
ONEWEB-0235,2021-045E,2026-07-22T13:42:14.317056,13.15547425,.00023628,87.8980,252.1432,105.6408,254.4983,0,U,48771,999,24903,-.49197463E-3,-.172E-5,0
ONEWEB-0242,2021-045F,2026-07-22T13:33:08.512704,13.15548838,.0002006,87.8986,252.1421,102.7454,257.3901,0,U,48772,999,24907,-.19676952E-4,.5E-7,0
ONEWEB-0241,2021-045G,2026-07-22T13:14:56.057280,13.15550998,.00023843,87.8975,252.1592,101.9487,258.1911,0,U,48773,999,24898,-.35532195E-3,-.121E-5,0
ONEWEB-0243,2021-045H,2026-07-22T03:03:21.213504,13.15550780,.00019438,87.8978,252.2558,111.8260,248.3077,0,U,48774,999,24895,.68426171E-3,.27E-5,0
ONEWEB-0222,2021-045J,2026-07-22T13:36:34.032384,13.15547225,.00022588,87.8982,252.1388,99.5638,260.5748,0,U,48775,999,24905,.1243614E-4,.18E-6,0
ONEWEB-0244,2021-045K,2026-07-22T05:06:36.383040,13.15547994,.00020487,87.8993,252.2059,99.9767,260.1594,0,U,48776,999,24957,.19332173E-3,.86E-6,0
ONEWEB-0247,2021-045L,2026-07-22T14:09:37.975968,13.15546427,.00023544,87.8977,252.1582,117.4548,242.6822,0,U,48777,999,24906,.40085443E-3,.164E-5,0
ONEWEB-0245,2021-045M,2026-07-22T04:55:10.197696,13.15549022,.00021991,87.8988,252.2178,98.1839,261.9541,0,U,48778,999,24898,.18698855E-3,.83E-6,0
ONEWEB-0229,2021-045N,2026-07-22T13:55:57.841248,13.15548141,.00020126,87.8982,252.1402,100.2575,259.8783,0,U,48779,999,24906,.28077199E-3,.119E-5,0
ONEWEB-0228,2021-045P,2026-07-22T12:54:32.272128,13.15548719,.00021519,87.8992,252.1435,98.3157,261.8218,0,U,48780,999,24897,-.37282777E-3,-.128E-5,0
ONEWEB-0232,2021-045Q,2026-07-22T14:07:22.776384,13.15548243,.00021374,87.8991,252.1337,96.7693,263.3680,0,U,48781,999,24930,.43428246E-3,.176E-5,0
ONEWEB-0231,2021-045R,2026-07-22T13:35:25.770336,13.15547729,.00022685,87.8978,252.1492,101.9941,258.1444,0,U,48782,999,24899,.10810583E-3,.54E-6,0
ONEWEB-0234,2021-045S,2026-07-22T09:01:25.669920,13.15547325,.00025678,87.8994,252.1697,80.0694,280.0726,0,U,48783,999,24910,.11772407E-3,.57E-6,0
ONEWEB-0238,2021-045T,2026-07-22T03:33:13.438080,13.15548920,.00022617,87.8993,252.2109,85.9217,274.2172,0,U,48784,999,24897,-.12016102E-3,-.32E-6,0
ONEWEB-0240,2021-045U,2026-07-22T04:03:50.127552,13.15549045,.00023721,87.8986,252.2163,98.9888,261.1511,0,U,48785,999,24900,-.41570336E-3,-.144E-5,0
ONEWEB-0246,2021-045V,2026-07-22T03:55:52.088448,13.15547950,.00020129,87.8988,252.2212,99.6220,260.5138,0,U,48786,999,24887,-.30202556E-3,-.101E-5,0
ONEWEB-0210,2021-045W,2026-07-22T08:47:55.812480,13.15548094,.00020519,87.8988,252.1781,121.7180,238.4150,0,U,48787,999,24894,.84617795E-4,.45E-6,0
ONEWEB-0214,2021-045X,2026-07-22T09:00:28.327968,13.15547067,.0001813,87.8985,252.1727,105.5709,254.5621,0,U,48788,999,24891,.13783464E-3,.65E-6,0
ONEWEB-0221,2021-045Y,2026-07-22T03:42:10.815840,13.15549308,.00021647,87.8984,252.2253,100.4583,259.6791,0,U,48789,999,24897,.7421152E-5,.16E-6,0
ONEWEB-0213,2021-045Z,2026-07-22T03:26:12.260544,13.15549252,.00017634,87.9007,252.2331,95.7285,264.4047,0,U,48790,999,24903,.4845933E-4,.31E-6,0
ONEWEB-0212,2021-045AA,2026-07-22T10:11:12.345216,13.15547564,.00020082,87.8983,252.1690,95.8922,264.2437,0,U,48791,999,24906,.19784462E-3,.87E-6,0
ONEWEB-0227,2021-045AB,2026-07-22T13:49:05.596608,13.15557833,.00021909,87.8968,252.1390,100.1741,259.9637,0,U,48792,999,24903,.31359957E-2,.1194E-4,0
ONEWEB-0226,2021-045AC,2026-07-22T13:39:59.394816,13.15547930,.000206,87.8982,252.1450,104.6236,255.5123,0,U,48793,999,24900,.97050632E-4,.49E-6,0
ONEWEB-0224,2021-045AD,2026-07-22T03:39:53.817408,13.15549115,.00029165,87.8977,252.2598,91.1580,268.9885,0,U,48794,999,24887,-.19144618E-3,-.59E-6,0
ONEWEB-0233,2021-045AE,2026-07-22T03:46:31.171008,13.15548743,.00023201,87.8975,252.2661,100.8878,259.2514,0,U,48795,999,24889,-.10176945E-2,-.37E-5,0
ONEWEB-0190,2021-045AF,2026-07-22T03:28:28.966944,13.15549209,.00023992,87.8985,252.2328,111.8397,248.2989,0,U,48796,999,24896,.24449576E-3,.105E-5,0
